X,Y,site,Nearest_BRTE_Lat,Nearest_BRTE_Lon,SeedSource,NewSiteCode,Lat_Diff,Lon_Diff,kinshipID,sample.id,genotype,source
-116.9951781,43.20847803,Boise_High,43.208482,-116.995198,field,BoiseHigh,-3.96999999452419e-06,1.98999999980742e-05,,,,
-116.708793,43.333643,Boise_Low,43.208482,-116.995198,field,BoiseHigh,0.125161000000006,0.286405000000002,,,,
-119.6833963,43.47110267,CaseAoyamaS1,43.47,-119.68,ghS1,Copeland9,0.00110267000000164,-0.00339629999999147,"30","150","40",Copeland09
-109.417,38.677,CastValley,38.52,-109.47,ghS1,Reed1,0.156999999999996,0.0529999999999973,"68","197","83",Reed01
-104.852501,41.21283,CG PASTURE,41.18,-104.9,ghS1,Blumenthal1,0.032829999999997,0.047499000000002,"15","132","8",Blumenthal01
-109.249642,40.422908,dino,40.480805,-109.438229,ghS1,Chynoweth5,-0.057896999999997,0.188587000000012,"86","221","98",Chynoweth05
-119.652027,49.561619,EnsingS1 SuRDC,49.62,-119.8,ghS1,AAFC9,-0.0583809999999971,0.147972999999993,"5","117","6",AAFC09
-119.797613,49.616744,EnsingS2 Summerland-Princeton,49.62,-119.8,ghS1,AAFC9,-0.00325600000000037,0.00238699999999881,"5","117","6",AAFC09
-119.505992,49.939567,EnsingS3 Bear Creek,49.94,-119.51,ghS2,AAFC2,-0.000433000000001016,0.0040079999999989,,,,
-120.60262,50.097899,EnsingS4 Lundbom,50.08,-120.65,ghS1,AAFC4,0.0178989999999999,0.047380000000004,"1","113","1",AAFC04
-119.700795,43.467044,EOARC,43.47,-119.68,ghS1,Copeland9,-0.00295599999999752,-0.0207949999999926,"30","150","40",Copeland09
-104.713075,40.856915,FAR NORTH CPER,40.64,-104.56,ghS1,Blumenthal8,0.216915,-0.153075000000001,"16","136","24",Blumenthal08
-105.9526,46.3863,FtK_Cottonwood_Coulee,44.59,-104.71,ghS1,Symstad1,1.7963,-1.24260000000001,"76","206","89",Symstad1
-105.8464,46.347,FtK_Lone_Pine,44.59,-104.71,ghS1,Symstad1,1.757,-1.13640000000001,"76","206","89",Symstad1
-105.095917,39.550182,GoeblS1,39.547444,-105.102111,ghS1,Hufft2,0.0027380000000008,0.00619399999999359,"41","167","53",Hufft2
-111.789327,41.766018,GreenCanyon,41.61,-111.57,ghS1,Holdrege1,0.156018000000003,-0.219327000000007,"39","165","51",Holdrege1
-111.567217,41.613286,HardwareRanch,41.61,-111.57,ghS1,Holdrege1,0.00328600000000279,0.00278299999999376,"39","165","51",Holdrege1
-104.899046,41.177913,HPGRS AGCR,41.18,-104.9,ghS1,Blumenthal1,-0.00208700000000306,0.000954000000007227,"15","132","8",Blumenthal01
-106.136433,41.221569,K1_vanDiepen,41.31,-105.66,ghS1,Wilcox2,-0.0884309999999999,-0.476433,"83","216","95",Wilcox02
-105.925447,41.217483,L1_vanDiepen,41.31,-105.66,ghS1,Wilcox2,-0.0925170000000008,-0.265447000000009,"83","216","95",Wilcox02
-114.022,46.691,MPG_IR,46.68,-114.03,ghS1,Maron1,0.0110000000000028,0.00799999999999557,"54","181","66",Maron1
-114.001,46.664,MPG_SR,46.68,-114.03,ghS1,Maron1,-0.0159999999999982,0.0289999999999964,"54","181","66",Maron1
-114.006,46.673,MPG_TH,46.68,-114.03,ghS1,Maron1,-0.0069999999999979,0.0240000000000009,"54","181","66",Maron1
-104.714491,40.812673,NEAR 4WAY CPER,40.64,-104.56,ghS1,Blumenthal8,0.172672999999996,-0.154490999999993,"16","136","24",Blumenthal08
-104.763785,40.835791,NEAR HQ CPER,40.64,-104.56,ghS1,Blumenthal8,0.195791,-0.203784999999996,"16","136","24",Blumenthal08
-104.717125,40.839464,NEAR NUTNET,40.64,-104.56,ghS1,Blumenthal8,0.199463999999999,-0.157124999999994,"16","136","24",Blumenthal08
-102.607243,43.777398,OttS1,43.78,-102.61,ghS1,JackieOtt5,-0.0026020000000031,0.00275700000000256,"44","170","56",JackieOtt5
-118.80428,42.33939,Pearlwise,42.27,-118.71,ghS1,Copeland5,0.0693899999999985,-0.0942800000000119,"29","149","39",Copeland05
-119.878406,39.591003,Peavine,39.49,-119.84,ghS1,Leger1,0.101002999999999,-0.0384059999999948,"53","180","65",Leger 1
-119.783711,39.072101,Plymouth,39.49,-119.84,ghS1,Leger1,-0.417898999999998,0.0562890000000067,"53","180","65",Leger 1
-105.271,40.625,PMR- Brome,40.63,-105.27,ghS1,Porensky30,-0.00500000000000256,-0.00100000000000477,"59","186","71",Porensky30
-105.271,40.625,PMR- Pine,40.63,-105.27,ghS1,Porensky30,-0.00500000000000256,-0.00100000000000477,"59","186","71",Porensky30
-111.664617,45.579969,RedBluff,45.67,-111.03,ghS1,Lavin2,-0.0900310000000033,-0.634617000000006,"48","174","60",Lavin02
-112.305,40.0906,Rush_Valley,40.2,-112.46,ghS1,Schupp2,-0.109400000000001,0.154999999999987,"71","201","12",Schupp02
-111.275659,41.926717,SouthEden,41.81,-111.25,ghS1,Adler14,0.116716999999994,-0.0256590000000045,,,,
-112.096947,44.295988,SSHigh,43.48,-110.74,ghS1,Barnett1,0.815988000000004,-1.35694700000001,"12","128","19",Barnett01
-112.213263,44.246799,SSHQ,43.48,-110.74,ghS1,Barnett1,0.766799000000006,-1.473263,"12","128","19",Barnett01
-103.541,43.35653,Symstad1,43.62,-103.47,ghS1,Symstad3,-0.263469999999998,-0.070999999999998,"78","208","91",Symstad3
-103.54046,43.3562,Symstad2,43.62,-103.47,ghS1,Symstad3,-0.263799999999996,-0.0704599999999971,"78","208","91",Symstad3
-105.125329,43.31193,TB FIRE,43.34,-105.13,ghS1,Porensky17,-0.0280700000000067,0.00467100000000187,"58","185","69",Porensky17
-105.112892,43.327853,TB LC Control,43.34,-105.13,ghS1,Porensky17,-0.0121470000000059,0.0171079999999932,"58","185","69",Porensky17
-105.133254,43.338797,TB PRAIRIE DOG,43.34,-105.13,ghS1,Porensky17,-0.00120300000000384,-0.00325399999999831,"58","185","69",Porensky17
-111.172565,41.56042,Woodruff,41.44,-111.08,ghS1,Adler13,0.120420000000003,-0.0925650000000076,"8","123","14",Adler13
